{"type": "FeatureCollection", "features": [ {"type": "Feature", "properties": {"norad_id": 66410, "name": "CHUTIAN-2 B", "group": "last-30-days", "lat": 78.10040990095658, "lon": 4.768249552838032, "alt_km": 718.461600767705, "timestamp": "2025-12-09T14:52:24.940353+00:00", "meta": {"OBJECT_NAME": "CHUTIAN-2 B", "OBJECT_ID": "2025-256B", "EPOCH": "2025-12-08T12:01:02.397216", "MEAN_MOTION": 14.50918128, "ECCENTRICITY": 0.0013696, "INCLINATION": 98.2797, "RA_OF_ASC_NODE": 47.3789, "ARG_OF_PERICENTER": 193.7504, "MEAN_ANOMALY": 166.332, "EPHEMERIS_TYPE": 0, "CLASSIFICATION_TYPE": "U", "NORAD_CAT_ID": 66410, "ELEMENT_SET_NO": 999, "REV_AT_EPOCH": 426, "BSTAR": 0.00034704, "MEAN_MOTION_DOT": 1.327e-05, "MEAN_MOTION_DDOT": 0}, "tle": {"line1": "1 66410U 25256B   25342.50072219  .00001327  00000+0  34704-3 0  9992", "line2": "2 66410  98.2797  47.3789 0013696 193.7504 166.3320 14.50918128  4265"}}, "geometry": {"type": "Point", "coordinates": [4.768249552838032, 78.10040990095658]}}, {"type": "Feature", "properties": {"norad_id": 66411, "name": "ZK-1A R/B", "group": "last-30-days", "lat": -14.351054395168047, "lon": -130.96916454100526, "alt_km": 486.1578560303551, "timestamp": "2025-12-09T14:52:24.940364+00:00", "meta": {"OBJECT_NAME": "ZK-1A R/B", "OBJECT_ID": "2025-256C", "EPOCH": "2025-12-09T04:23:43.113696", "MEAN_MOTION": 15.01858056, "ECCENTRICITY": 0.02286804, "INCLINATION": 98.3224, "RA_OF_ASC_NODE": 50.7087, "ARG_OF_PERICENTER": 256.8431, "MEAN_ANOMALY": 100.7186, "EPHEMERIS_TYPE": 0, "CLASSIFICATION_TYPE": "U", "NORAD_CAT_ID": 66411, "ELEMENT_SET_NO": 999, "REV_AT_EPOCH": 451, "BSTAR": 0.00076900005, "MEAN_MOTION_DOT": 0.00017708, "MEAN_MOTION_DDOT": 0}, "tle": {"line1": "1 66411U 25256C   25343.18313789  .00017708  00000+0  76900-3 0  9992", "line2": "2 66411  98.3224  50.7087 0228680 256.8431 100.7186 15.01858056  4512"}}, "geometry": {"type": "Point", "coordinates": [-130.96916454100526, -14.351054395168047]}}, {"type": "Feature", "properties": {"norad_id": 66412, "name": "HULIANWANG DIGUI 13A", "group": "last-30-days", "lat": -24.76996548438959, "lon": -107.61045690343725, "alt_km": 821.8447766471882, "timestamp": "2025-12-09T14:52:24.940378+00:00", "meta": {"OBJECT_NAME": "HULIANWANG DIGUI 13A", "OBJECT_ID": "2025-258A", "EPOCH": "2025-12-08T08:38:10.619232", "MEAN_MOTION": 14.20432847, "ECCENTRICITY": 0.00076585, "INCLINATION": 50.0042, "RA_OF_ASC_NODE": 280.4566, "ARG_OF_PERICENTER": 343.0746, "MEAN_ANOMALY": 16.9909, "EPHEMERIS_TYPE": 0, "CLASSIFICATION_TYPE": "U", "NORAD_CAT_ID": 66412, "ELEMENT_SET_NO": 999, "REV_AT_EPOCH": 403, "BSTAR": 0.00033138446, "MEAN_MOTION_DOT": 5.57e-06, "MEAN_MOTION_DDOT": 0}, "tle": {"line1": "1 66412U 25258A   25342.35984513  .00000557  00000+0  33138-3 0  9992", "line2": "2 66412  50.0042 280.4566 0007658 343.0746  16.9909 14.20432847  4032"}}, "geometry": {"type": "Point", "coordinates": [-107.61045690343725, -24.76996548438959]}}, {"type": "Feature", "properties": {"norad_id": 66413, "name": "HULIANWANG DIGUI 13B", "group": "last-30-days", "lat": -49.58012104945881, "lon": -165.14012063280668, "alt_km": 830.5270294653455, "timestamp": "2025-12-09T14:52:24.940389+00:00", "meta": {"OBJECT_NAME": "HULIANWANG DIGUI 13B", "OBJECT_ID": "2025-258B", "EPOCH": "2025-12-08T20:40:52.882752", "MEAN_MOTION": 14.19495379, "ECCENTRICITY": 0.00049258, "INCLINATION": 49.9968, "RA_OF_ASC_NODE": 278.4258, "ARG_OF_PERICENTER": 347.5577, "MEAN_ANOMALY": 12.5212, "EPHEMERIS_TYPE": 0, "CLASSIFICATION_TYPE": "U", "NORAD_CAT_ID": 66413, "ELEMENT_SET_NO": 999, "REV_AT_EPOCH": 410, "BSTAR": 0.00048755309, "MEAN_MOTION_DOT": 8.76e-06, "MEAN_MOTION_DDOT": 0}, "tle": {"line1": "1 66413U 25258B   25342.86172318  .00000876  00000+0  48755-3 0  9996", "line2": "2 66413  49.9968 278.4258 0004925 347.5577  12.5212 14.19495379  4101"}}, "geometry": {"type": "Point", "coordinates": [-165.14012063280668, -49.58012104945881]}}, {"type": "Feature", "properties": {"norad_id": 66414, "name": "HULIANWANG DIGUI 13C", "group": "last-30-days", "lat": -44.35894398972104, "lon": -139.92223597660652, "alt_km": 829.9886948862422, "timestamp": "2025-12-09T14:52:24.940399+00:00", "meta": {"OBJECT_NAME": "HULIANWANG DIGUI 13C", "OBJECT_ID": "2025-258C", "EPOCH": "2025-12-09T03:21:13.066848", "MEAN_MOTION": 14.19246085, "ECCENTRICITY": 0.00047063, "INCLINATION": 50.0081, "RA_OF_ASC_NODE": 277.2503, "ARG_OF_PERICENTER": 342.5024, "MEAN_ANOMALY": 17.5724, "EPHEMERIS_TYPE": 0, "CLASSIFICATION_TYPE": "U", "NORAD_CAT_ID": 66414, "ELEMENT_SET_NO": 999, "REV_AT_EPOCH": 414, "BSTAR": 0.00041183983, "MEAN_MOTION_DOT": 7.11e-06, "MEAN_MOTION_DDOT": 0}, "tle": {"line1": "1 66414U 25258C   25343.13973457  .00000711  00000+0  41184-3 0  9998", "line2": "2 66414  50.0081 277.2503 0004706 342.5024  17.5724 14.19246085  4145"}}, "geometry": {"type": "Point", "coordinates": [-139.92223597660652, -44.35894398972104]}}, {"type": "Feature", "properties": {"norad_id": 66415, "name": "HULIANWANG DIGUI 13D", "group": "last-30-days", "lat": -17.06286981731988, "lon": -99.769906367757, "alt_km": 820.506261668881, "timestamp": "2025-12-09T14:52:24.940410+00:00", "meta": {"OBJECT_NAME": "HULIANWANG DIGUI 13D", "OBJECT_ID": "2025-258D", "EPOCH": "2025-12-08T18:43:14.477088", "MEAN_MOTION": 14.20669566, "ECCENTRICITY": 0.00073015, "INCLINATION": 50.0039, "RA_OF_ASC_NODE": 278.6799, "ARG_OF_PERICENTER": 351.1938, "MEAN_ANOMALY": 8.8844, "EPHEMERIS_TYPE": 0, "CLASSIFICATION_TYPE": "U", "NORAD_CAT_ID": 66415, "ELEMENT_SET_NO": 999, "REV_AT_EPOCH": 409, "BSTAR": 0.00031109029, "MEAN_MOTION_DOT": 5.16e-06, "MEAN_MOTION_DDOT": 0}, "tle": {"line1": "1 66415U 25258D   25342.78002867  .00000516  00000+0  31109-3 0  9996", "line2": "2 66415  50.0039 278.6799 0007301 351.1938   8.8844 14.20669566  4090"}}, "geometry": {"type": "Point", "coordinates": [-99.769906367757, -17.06286981731988]}}, {"type": "Feature", "properties": {"norad_id": 66416, "name": "HULIANWANG DIGUI 13E", "group": "last-30-days", "lat": -38.34615879034515, "lon": -126.38429685973216, "alt_km": 827.724756061295, "timestamp": "2025-12-09T14:52:24.940422+00:00", "meta": {"OBJECT_NAME": "HULIANWANG DIGUI 13E", "OBJECT_ID": "2025-258E", "EPOCH": "2025-12-08T20:32:41.838720", "MEAN_MOTION": 14.19737012, "ECCENTRICITY": 0.00054325, "INCLINATION": 50.0065, "RA_OF_ASC_NODE": 278.4193, "ARG_OF_PERICENTER": 353.4979, "MEAN_ANOMALY": 6.5861, "EPHEMERIS_TYPE": 0, "CLASSIFICATION_TYPE": "U", "NORAD_CAT_ID": 66416, "ELEMENT_SET_NO": 999, "REV_AT_EPOCH": 410, "BSTAR": 0.00052022301, "MEAN_MOTION_DOT": 9.5e-06, "MEAN_MOTION_DDOT": 0}, "tle": {"line1": "1 66416U 25258E   25342.85603980  .00000950  00000+0  52022-3 0  9997", "line2": "2 66416  50.0065 278.4193 0005432 353.4979   6.5861 14.19737012  4105"}}, "geometry": {"type": "Point", "coordinates": [-126.38429685973216, -38.34615879034515]}}, {"type": "Feature", "properties": {"norad_id": 66417, "name": "HULIANWANG DIGUI 13F", "group": "last-30-days", "lat": -32.291555396818865, "lon": -116.86416319649732, "alt_km": 826.5767749020606, "timestamp": "2025-12-09T14:52:24.940433+00:00", "meta": {"OBJECT_NAME": "HULIANWANG DIGUI 13F", "OBJECT_ID": "2025-258F", "EPOCH": "2025-12-08T20:30:02.663136", "MEAN_MOTION": 14.19898124, "ECCENTRICITY": 0.00049712, "INCLINATION": 50.0014, "RA_OF_ASC_NODE": 278.3846, "ARG_OF_PERICENTER": 352.5523, "MEAN_ANOMALY": 7.5313, "EPHEMERIS_TYPE": 0, "CLASSIFICATION_TYPE": "U", "NORAD_CAT_ID": 66417, "ELEMENT_SET_NO": 999, "REV_AT_EPOCH": 410, "BSTAR": 0.0004539907, "MEAN_MOTION_DOT": 8.12e-06, "MEAN_MOTION_DDOT": 0}, "tle": {"line1": "1 66417U 25258F   25342.85419749  .00000812  00000+0  45399-3 0  9992", "line2": "2 66417  50.0014 278.3846 0004971 352.5523   7.5313 14.19898124  4101"}}, "geometry": {"type": "Point", "coordinates": [-116.86416319649732, -32.291555396818865]}}, {"type": "Feature", "properties": {"norad_id": 66418, "name": "HULIANWANG DIGUI 13G", "group": "last-30-days", "lat": -10.963216868688562, "lon": -94.23031398918742, "alt_km": 821.4505466971086, "timestamp": "2025-12-09T14:52:24.940443+00:00", "meta": {"OBJECT_NAME": "HULIANWANG DIGUI 13G", "OBJECT_ID": "2025-258G", "EPOCH": "2025-12-08T20:22:07.229856", "MEAN_MOTION": 14.20510798, "ECCENTRICITY": 0.00055793, "INCLINATION": 50.0031, "RA_OF_ASC_NODE": 278.3586, "ARG_OF_PERICENTER": 346.1381, "MEAN_ANOMALY": 13.9377, "EPHEMERIS_TYPE": 0, "CLASSIFICATION_TYPE": "U", "NORAD_CAT_ID": 66418, "ELEMENT_SET_NO": 999, "REV_AT_EPOCH": 410, "BSTAR": 0.00039264944, "MEAN_MOTION_DOT": 6.91e-06, "MEAN_MOTION_DDOT": 0}, "tle": {"line1": "1 66418U 25258G   25342.84869479  .00000691  00000+0  39265-3 0  9991", "line2": "2 66418  50.0031 278.3586 0005579 346.1381  13.9377 14.20510798  4109"}}, "geometry": {"type": "Point", "coordinates": [-94.23031398918742, -10.963216868688562]}}, {"type": "Feature", "properties": {"norad_id": 66419, "name": "HULIANWANG DIGUI 13H", "group": "last-30-days", "lat": 41.17015117430858, "lon": -99.70576427949625, "alt_km": 440.53197189340517, "timestamp": "2025-12-09T14:52:24.940455+00:00", "meta": {"OBJECT_NAME": "HULIANWANG DIGUI 13H", "OBJECT_ID": "2025-258H", "EPOCH": "2025-12-08T14:58:00.814656", "MEAN_MOTION": 15.39596954, "ECCENTRICITY": 0.00012505, "INCLINATION": 53.1596, "RA_OF_ASC_NODE": 125.9585, "ARG_OF_PERICENTER": 98.9072, "MEAN_ANOMALY": 261.2074, "EPHEMERIS_TYPE": 0, "CLASSIFICATION_TYPE": "U", "NORAD_CAT_ID": 66419, "ELEMENT_SET_NO": 999, "REV_AT_EPOCH": 804, "BSTAR": 0.0024249346, "MEAN_MOTION_DOT": 0.00097774, "MEAN_MOTION_DDOT": 0}, "tle": {"line1": "1 66419U 25258H   25342.62362054  .00097774  00000+0  24249-2 0  9998", "line2": "2 66419  53.1596 125.9585 0001250  98.9072 261.2074 15.39596954  8045"}}, "geometry": {"type": "Point", "coordinates": [-99.70576427949625, 41.17015117430858]}}]}